ISS OBJECT XZ           
1 67683U 98067XZ  26060.74047329  .00041861  00000+0  70811-3 0  9999
2 67683  51.6323 111.3281 0009603 159.6177 200.5198 15.51106476  3557
GXIBA-1                 
1 67684U 98067YA  26060.53111716  .00075127  00000+0  11805-2 0  9998
2 67684  51.6306 112.1796 0011045 149.3528 210.8109 15.52893604  3528
CORAL                   
1 67685U 98067YB  26060.86650021  .00044685  00000+0  74665-3 0  9991
2 67685  51.6314 110.6689 0011564 156.0443 204.1086 15.51398872  3570
ISS OBJECT YC           
1 67686U 98067YC  26060.41246378  .00054052  00000+0  89126-3 0  9996
2 67686  51.6316 112.8884 0007664 122.7439 237.4290 15.51728286  3500
LEOPARD                 
1 67687U 98067YD  26061.12545728  .00041666  00000+0  70118-3 0  9995
2 67687  51.6314 109.3990 0007655 128.7771 231.3903 15.51272164  3539
ISS OBJECT YE           
1 67688U 98067YE  26060.41383435  .00050179  00000+0  83355-3 0  9998
2 67688  51.6318 112.8976 0007609 123.4438 236.7280 15.51553933  3429
PRC TEST SPACECRAFT 4   
1 67689U 26024A   26061.12442346  .00000108  00000+0  34626-4 0  9994
2 67689  49.9856  58.2845 0006128 331.0112  29.0488 14.91681066  3454
CZ-2F R/B               
1 67690U 26024B   26061.14753109  .00019921  00000+0  36705-3 0  9992
2 67690  49.9876  52.4166 0175237 243.6299 114.6577 15.33988279  3534
CZ-2F DEB               
1 67691U 26024C   26061.16015439  .01083237  10801-4  80498-3 0  9997
2 67691  49.9037  45.3794 0171196 257.0438 101.1377 15.90713657  3613
CZ-2F DEB               
1 67692U 26024D   26061.13442095  .00225085  00000+0  41177-2 0  9990
2 67692  50.3174  55.7438 0242836 250.3595 107.1011 15.22059714  3479
STARLINK-36748          
1 67693U 26025A   26060.91861451  .00213765  00000+0  13988-2 0  9999
2 67693  97.2849 172.0670 0001170  86.9567 273.1832 15.75184081  4713
STARLINK-36753          
1 67694U 26025B   26060.91085369  .00168636  00000+0  11076-2 0  9998
2 67694  97.2848 172.0768 0001110  90.1977 269.9415 15.75225477  4723
