CCSDS_OMM_VERS = 2.0
CREATION_DATE  = 
ORIGINATOR     = 

OBJECT_NAME    = ISS OBJECT XZ
OBJECT_ID      = 1998-067XZ
CENTER_NAME    = EARTH
REF_FRAME      = TEME
TIME_SYSTEM    = UTC
MEAN_ELEMENT_THEORY = SGP/SGP4

EPOCH          = 2026-03-01T17:46:16.892256
MEAN_MOTION    = 15.51106476
ECCENTRICITY   = .00096037
INCLINATION    = 51.6323
RA_OF_ASC_NODE = 111.3281
ARG_OF_PERICENTER = 159.6177
MEAN_ANOMALY   = 200.5198

EPHEMERIS_TYPE = 0
CLASSIFICATION_TYPE = U
NORAD_CAT_ID   = 67683
ELEMENT_SET_NO = 999
REV_AT_EPOCH   = 355
BSTAR          = .70810569E-3
MEAN_MOTION_DOT = .41861E-3
MEAN_MOTION_DDOT = 0

CCSDS_OMM_VERS = 2.0
CREATION_DATE  = 
ORIGINATOR     = 

OBJECT_NAME    = GXIBA-1
OBJECT_ID      = 1998-067YA
CENTER_NAME    = EARTH
REF_FRAME      = TEME
TIME_SYSTEM    = UTC
MEAN_ELEMENT_THEORY = SGP/SGP4

EPOCH          = 2026-03-01T12:44:48.522624
MEAN_MOTION    = 15.52893604
ECCENTRICITY   = .00110451
INCLINATION    = 51.6306
RA_OF_ASC_NODE = 112.1796
ARG_OF_PERICENTER = 149.3528
MEAN_ANOMALY   = 210.8109

EPHEMERIS_TYPE = 0
CLASSIFICATION_TYPE = U
NORAD_CAT_ID   = 67684
ELEMENT_SET_NO = 999
REV_AT_EPOCH   = 352
BSTAR          = .11804746E-2
MEAN_MOTION_DOT = .75127E-3
MEAN_MOTION_DDOT = 0

CCSDS_OMM_VERS = 2.0
CREATION_DATE  = 
ORIGINATOR     = 

OBJECT_NAME    = CORAL
OBJECT_ID      = 1998-067YB
CENTER_NAME    = EARTH
REF_FRAME      = TEME
TIME_SYSTEM    = UTC
MEAN_ELEMENT_THEORY = SGP/SGP4

EPOCH          = 2026-03-01T20:47:45.618144
MEAN_MOTION    = 15.51398872
ECCENTRICITY   = .0011564
INCLINATION    = 51.6314
RA_OF_ASC_NODE = 110.6689
ARG_OF_PERICENTER = 156.0443
MEAN_ANOMALY   = 204.1086

EPHEMERIS_TYPE = 0
CLASSIFICATION_TYPE = U
NORAD_CAT_ID   = 67685
ELEMENT_SET_NO = 999
REV_AT_EPOCH   = 357
BSTAR          = .74665E-3
MEAN_MOTION_DOT = .44685E-3
MEAN_MOTION_DDOT = 0

CCSDS_OMM_VERS = 2.0
CREATION_DATE  = 
ORIGINATOR     = 

OBJECT_NAME    = ISS OBJECT YC
OBJECT_ID      = 1998-067YC
CENTER_NAME    = EARTH
REF_FRAME      = TEME
TIME_SYSTEM    = UTC
MEAN_ELEMENT_THEORY = SGP/SGP4

EPOCH          = 2026-03-01T09:53:56.870592
MEAN_MOTION    = 15.51728286
ECCENTRICITY   = .00076647
INCLINATION    = 51.6316
RA_OF_ASC_NODE = 112.8884
ARG_OF_PERICENTER = 122.7439
MEAN_ANOMALY   = 237.4290

EPHEMERIS_TYPE = 0
CLASSIFICATION_TYPE = U
NORAD_CAT_ID   = 67686
ELEMENT_SET_NO = 999
REV_AT_EPOCH   = 350
BSTAR          = .89125935E-3
MEAN_MOTION_DOT = .54052E-3
MEAN_MOTION_DDOT = 0

CCSDS_OMM_VERS = 2.0
CREATION_DATE  = 
ORIGINATOR     = 

OBJECT_NAME    = LEOPARD
OBJECT_ID      = 1998-067YD
CENTER_NAME    = EARTH
REF_FRAME      = TEME
TIME_SYSTEM    = UTC
MEAN_ELEMENT_THEORY = SGP/SGP4

EPOCH          = 2026-03-02T03:00:39.508992
MEAN_MOTION    = 15.51272164
ECCENTRICITY   = .0007655
INCLINATION    = 51.6314
RA_OF_ASC_NODE = 109.3990
ARG_OF_PERICENTER = 128.7771
MEAN_ANOMALY   = 231.3903

EPHEMERIS_TYPE = 0
CLASSIFICATION_TYPE = U
NORAD_CAT_ID   = 67687
ELEMENT_SET_NO = 999
REV_AT_EPOCH   = 353
BSTAR          = .70118E-3
MEAN_MOTION_DOT = .41666E-3
MEAN_MOTION_DDOT = 0

CCSDS_OMM_VERS = 2.0
CREATION_DATE  = 
ORIGINATOR     = 

OBJECT_NAME    = ISS OBJECT YE
OBJECT_ID      = 1998-067YE
CENTER_NAME    = EARTH
REF_FRAME      = TEME
TIME_SYSTEM    = UTC
MEAN_ELEMENT_THEORY = SGP/SGP4

EPOCH          = 2026-03-01T09:55:55.287840
MEAN_MOTION    = 15.51553933
ECCENTRICITY   = .00076095
INCLINATION    = 51.6318
RA_OF_ASC_NODE = 112.8976
ARG_OF_PERICENTER = 123.4438
MEAN_ANOMALY   = 236.7280

EPHEMERIS_TYPE = 0
CLASSIFICATION_TYPE = U
NORAD_CAT_ID   = 67688
ELEMENT_SET_NO = 999
REV_AT_EPOCH   = 342
BSTAR          = .83355093E-3
MEAN_MOTION_DOT = .50179E-3
MEAN_MOTION_DDOT = 0

CCSDS_OMM_VERS = 2.0
CREATION_DATE  = 
ORIGINATOR     = 

OBJECT_NAME    = PRC TEST SPACECRAFT 4
OBJECT_ID      = 2026-024A
CENTER_NAME    = EARTH
REF_FRAME      = TEME
TIME_SYSTEM    = UTC
MEAN_ELEMENT_THEORY = SGP/SGP4

EPOCH          = 2026-03-02T02:59:10.186944
MEAN_MOTION    = 14.91681066
ECCENTRICITY   = .0006128
INCLINATION    = 49.9856
RA_OF_ASC_NODE = 58.2845
ARG_OF_PERICENTER = 331.0112
MEAN_ANOMALY   = 29.0488

EPHEMERIS_TYPE = 0
CLASSIFICATION_TYPE = U
NORAD_CAT_ID   = 67689
ELEMENT_SET_NO = 999
REV_AT_EPOCH   = 345
BSTAR          = .34626E-4
MEAN_MOTION_DOT = .108E-5
MEAN_MOTION_DDOT = 0

CCSDS_OMM_VERS = 2.0
CREATION_DATE  = 
ORIGINATOR     = 

OBJECT_NAME    = CZ-2F R/B
OBJECT_ID      = 2026-024B
CENTER_NAME    = EARTH
REF_FRAME      = TEME
TIME_SYSTEM    = UTC
MEAN_ELEMENT_THEORY = SGP/SGP4

EPOCH          = 2026-03-02T03:32:26.686176
MEAN_MOTION    = 15.33988279
ECCENTRICITY   = .0175237
INCLINATION    = 49.9876
RA_OF_ASC_NODE = 52.4166
ARG_OF_PERICENTER = 243.6299
MEAN_ANOMALY   = 114.6577

EPHEMERIS_TYPE = 0
CLASSIFICATION_TYPE = U
NORAD_CAT_ID   = 67690
ELEMENT_SET_NO = 999
REV_AT_EPOCH   = 353
BSTAR          = .36705E-3
MEAN_MOTION_DOT = .19921E-3
MEAN_MOTION_DDOT = 0

CCSDS_OMM_VERS = 2.0
CREATION_DATE  = 
ORIGINATOR     = 

OBJECT_NAME    = CZ-2F DEB
OBJECT_ID      = 2026-024C
CENTER_NAME    = EARTH
REF_FRAME      = TEME
TIME_SYSTEM    = UTC
MEAN_ELEMENT_THEORY = SGP/SGP4

EPOCH          = 2026-03-02T03:50:37.339296
MEAN_MOTION    = 15.90713657
ECCENTRICITY   = .0171196
INCLINATION    = 49.9037
RA_OF_ASC_NODE = 45.3794
ARG_OF_PERICENTER = 257.0438
MEAN_ANOMALY   = 101.1377

EPHEMERIS_TYPE = 0
CLASSIFICATION_TYPE = U
NORAD_CAT_ID   = 67691
ELEMENT_SET_NO = 999
REV_AT_EPOCH   = 361
BSTAR          = .80498E-3
MEAN_MOTION_DOT = .1083237E-1
MEAN_MOTION_DDOT = .10801E-4

CCSDS_OMM_VERS = 2.0
CREATION_DATE  = 
ORIGINATOR     = 

OBJECT_NAME    = CZ-2F DEB
OBJECT_ID      = 2026-024D
CENTER_NAME    = EARTH
REF_FRAME      = TEME
TIME_SYSTEM    = UTC
MEAN_ELEMENT_THEORY = SGP/SGP4

EPOCH          = 2026-03-02T03:13:33.970080
MEAN_MOTION    = 15.22059714
ECCENTRICITY   = .0242836
INCLINATION    = 50.3174
RA_OF_ASC_NODE = 55.7438
ARG_OF_PERICENTER = 250.3595
MEAN_ANOMALY   = 107.1011

EPHEMERIS_TYPE = 0
CLASSIFICATION_TYPE = U
NORAD_CAT_ID   = 67692
ELEMENT_SET_NO = 999
REV_AT_EPOCH   = 347
BSTAR          = .41177E-2
MEAN_MOTION_DOT = .225085E-2
MEAN_MOTION_DDOT = 0

CCSDS_OMM_VERS = 2.0
CREATION_DATE  = 
ORIGINATOR     = 

OBJECT_NAME    = STARLINK-36748
OBJECT_ID      = 2026-025A
CENTER_NAME    = EARTH
REF_FRAME      = TEME
TIME_SYSTEM    = UTC
MEAN_ELEMENT_THEORY = SGP/SGP4

EPOCH          = 2026-03-01T22:02:48.293664
MEAN_MOTION    = 15.75184081
ECCENTRICITY   = .000117
INCLINATION    = 97.2849
RA_OF_ASC_NODE = 172.0670
ARG_OF_PERICENTER = 86.9567
MEAN_ANOMALY   = 273.1832

EPHEMERIS_TYPE = 0
CLASSIFICATION_TYPE = U
NORAD_CAT_ID   = 67693
ELEMENT_SET_NO = 999
REV_AT_EPOCH   = 471
BSTAR          = .13988E-2
MEAN_MOTION_DOT = .213765E-2
MEAN_MOTION_DDOT = 0

CCSDS_OMM_VERS = 2.0
CREATION_DATE  = 
ORIGINATOR     = 

OBJECT_NAME    = STARLINK-36753
OBJECT_ID      = 2026-025B
CENTER_NAME    = EARTH
REF_FRAME      = TEME
TIME_SYSTEM    = UTC
MEAN_ELEMENT_THEORY = SGP/SGP4

EPOCH          = 2026-03-01T21:51:37.758816
MEAN_MOTION    = 15.75225477
ECCENTRICITY   = .000111
INCLINATION    = 97.2848
RA_OF_ASC_NODE = 172.0768
ARG_OF_PERICENTER = 90.1977
MEAN_ANOMALY   = 269.9415

EPHEMERIS_TYPE = 0
CLASSIFICATION_TYPE = U
NORAD_CAT_ID   = 67694
ELEMENT_SET_NO = 999
REV_AT_EPOCH   = 472
BSTAR          = .11076E-2
MEAN_MOTION_DOT = .168636E-2
MEAN_MOTION_DDOT = 0

